TROLL                   
1 62658U 25009BB  26068.22522958  .00013174  00000+0  48220-3 0  9994
2 62658  97.3932 150.7169 0001816  59.1850 300.9568 15.28164315118170
STARLINK-34114          
1 63905U 25095R   26067.38254070  .00038318  00000+0  13938-2 0  9992
2 63905  43.0021 183.9699 0000894 231.7805 128.2966 15.27602250 47574
